ONEWEB-0401             
1 50481U 21132N   23297.15721697  .00000613  00000+0  15211-2 0  9999
2 50481  87.9256 167.8062 0002499  78.5069 281.6344 13.18681554 95448
ONEWEB-0402             
1 50482U 21132P   23296.36474975 -.00001043  00000+0 -26795-2 0  9995
2 50482  87.9186 167.9626 0002205  53.6705 306.4631 13.18688906 94086
ONEWEB-0403             
1 50483U 21132Q   23297.14668860  .00006948  00000+0  17586-1 0  9995
2 50483  87.9265 167.8077 0003086  80.1253 280.0227 13.18648329 95427
ONEWEB-0404             
1 50484U 21132R   23296.81202353 -.00000354  00000+0 -10334-2 0  9992
2 50484  87.8998 213.2401 0002010  92.0334 268.1025 13.11420865 88909
ONEWEB-0405             
1 50485U 21132S   23296.94786615  .00000018  00000+0  13141-4 0  9991
2 50485  87.9261 167.8427 0002203  75.8693 284.2684 13.19204088 94516
ONEWEB-0406             
1 50486U 21132T   23297.15089645  .00006659  00000+0  16855-1 0  9994
2 50486  87.9258 167.8069 0002164  86.4377 273.7003 13.18651533 95461
ONEWEB-0407             
1 50487U 21132U   23297.14458184  .00015039  00000+0  38093-1 0  9992
2 50487  87.9257 167.8165 0002570  70.4914 289.6495 13.18611759 95400
ONEWEB-0409             
1 50488U 21132V   23297.49705219 -.00000487  00000+0 -14102-2 0  9994
2 50488  87.9000 213.1205 0001717  96.9134 263.2189 13.11416565 90163
